ORBCOMM FM103 [+]       
1 40091U 14040F   24016.92877135  .00001380  00000+0  34665-3 0  9996
2 40091  47.0068 296.7794 0001585  51.0849 309.0177 14.56217490488669
ORBCOMM FM114 [+]       
1 41179U 15081A   24017.37485017  .00001724  00000+0  42362-3 0  9999
2 41179  47.0010 203.9991 0001587 153.5051 206.5915 14.56214242429093
ORBCOMM FM119 [-]       
1 41180U 15081B   24016.65727581  .00001656  00000+0  40864-3 0  9995
2 41180  47.0010 116.5681 0002038 224.9215 135.1505 14.56206470430242
ORBCOMM FM105 [-]       
1 41181U 15081C   24016.98407000  .00000675  00000+0  24037-3 0  9997
2 41181  47.0023  71.5476 0001875 193.7641 166.3188 14.44186308425963
ORBCOMM FM112 [+]       
1 41184U 15081F   24017.39009769  .00002030  00000+0  49234-3 0  9999
2 41184  46.9991 112.3604 0001828 215.9237 144.1525 14.56198842430291
ORBCOMM FM113 [+]       
1 41185U 15081G   24017.36683472  .00002023  00000+0  49095-3 0  9993
2 41185  47.0001 112.7136 0001722 236.5494 123.5226 14.56195330430273
