<?xml version="1.0" encoding="UTF-8"?>
<ndm xmlns:xsi="http://www.w3.org/2001/XMLSchema-instance" xsi:noNamespaceSchemaLocation="https://sanaregistry.org/r/ndmxml_unqualified/ndmxml-2.0.0-master-2.0.xsd">
<omm id="CCSDS_OMM_VERS" version="2.0">
<header><CREATION_DATE/><ORIGINATOR/></header><body><segment><metadata><OBJECT_NAME>ORBCOMM FM103 [+]</OBJECT_NAME><OBJECT_ID>2014-040F</OBJECT_ID><CENTER_NAME>EARTH</CENTER_NAME><REF_FRAME>TEME</REF_FRAME><TIME_SYSTEM>UTC</TIME_SYSTEM><MEAN_ELEMENT_THEORY>SGP4</MEAN_ELEMENT_THEORY></metadata><data><meanElements><EPOCH>2024-01-16T22:17:25.844640</EPOCH><MEAN_MOTION>14.56217490</MEAN_MOTION><ECCENTRICITY>.0001585</ECCENTRICITY><INCLINATION>47.0068</INCLINATION><RA_OF_ASC_NODE>296.7794</RA_OF_ASC_NODE><ARG_OF_PERICENTER>51.0849</ARG_OF_PERICENTER><MEAN_ANOMALY>309.0177</MEAN_ANOMALY></meanElements><tleParameters><EPHEMERIS_TYPE>0</EPHEMERIS_TYPE><CLASSIFICATION_TYPE>U</CLASSIFICATION_TYPE><NORAD_CAT_ID>40091</NORAD_CAT_ID><ELEMENT_SET_NO>999</ELEMENT_SET_NO><REV_AT_EPOCH>48866</REV_AT_EPOCH><BSTAR>.34665E-3</BSTAR><MEAN_MOTION_DOT>.138E-4</MEAN_MOTION_DOT><MEAN_MOTION_DDOT>0</MEAN_MOTION_DDOT></tleParameters></data></segment></body></omm>
<omm id="CCSDS_OMM_VERS" version="2.0">
<header><CREATION_DATE/><ORIGINATOR/></header><body><segment><metadata><OBJECT_NAME>ORBCOMM FM114 [+]</OBJECT_NAME><OBJECT_ID>2015-081A</OBJECT_ID><CENTER_NAME>EARTH</CENTER_NAME><REF_FRAME>TEME</REF_FRAME><TIME_SYSTEM>UTC</TIME_SYSTEM><MEAN_ELEMENT_THEORY>SGP4</MEAN_ELEMENT_THEORY></metadata><data><meanElements><EPOCH>2024-01-17T08:59:47.054688</EPOCH><MEAN_MOTION>14.56214242</MEAN_MOTION><ECCENTRICITY>.0001587</ECCENTRICITY><INCLINATION>47.0010</INCLINATION><RA_OF_ASC_NODE>203.9991</RA_OF_ASC_NODE><ARG_OF_PERICENTER>153.5051</ARG_OF_PERICENTER><MEAN_ANOMALY>206.5915</MEAN_ANOMALY></meanElements><tleParameters><EPHEMERIS_TYPE>0</EPHEMERIS_TYPE><CLASSIFICATION_TYPE>U</CLASSIFICATION_TYPE><NORAD_CAT_ID>41179</NORAD_CAT_ID><ELEMENT_SET_NO>999</ELEMENT_SET_NO><REV_AT_EPOCH>42909</REV_AT_EPOCH><BSTAR>.42362E-3</BSTAR><MEAN_MOTION_DOT>.1724E-4</MEAN_MOTION_DOT><MEAN_MOTION_DDOT>0</MEAN_MOTION_DDOT></tleParameters></data></segment></body></omm>
<omm id="CCSDS_OMM_VERS" version="2.0">
<header><CREATION_DATE/><ORIGINATOR/></header><body><segment><metadata><OBJECT_NAME>ORBCOMM FM119 [-]</OBJECT_NAME><OBJECT_ID>2015-081B</OBJECT_ID><CENTER_NAME>EARTH</CENTER_NAME><REF_FRAME>TEME</REF_FRAME><TIME_SYSTEM>UTC</TIME_SYSTEM><MEAN_ELEMENT_THEORY>SGP4</MEAN_ELEMENT_THEORY></metadata><data><meanElements><EPOCH>2024-01-16T15:46:28.629984</EPOCH><MEAN_MOTION>14.56206470</MEAN_MOTION><ECCENTRICITY>.0002038</ECCENTRICITY><INCLINATION>47.0010</INCLINATION><RA_OF_ASC_NODE>116.5681</RA_OF_ASC_NODE><ARG_OF_PERICENTER>224.9215</ARG_OF_PERICENTER><MEAN_ANOMALY>135.1505</MEAN_ANOMALY></meanElements><tleParameters><EPHEMERIS_TYPE>0</EPHEMERIS_TYPE><CLASSIFICATION_TYPE>U</CLASSIFICATION_TYPE><NORAD_CAT_ID>41180</NORAD_CAT_ID><ELEMENT_SET_NO>999</ELEMENT_SET_NO><REV_AT_EPOCH>43024</REV_AT_EPOCH><BSTAR>.40864E-3</BSTAR><MEAN_MOTION_DOT>.1656E-4</MEAN_MOTION_DOT><MEAN_MOTION_DDOT>0</MEAN_MOTION_DDOT></tleParameters></data></segment></body></omm>
<omm id="CCSDS_OMM_VERS" version="2.0">
<header><CREATION_DATE/><ORIGINATOR/></header><body><segment><metadata><OBJECT_NAME>ORBCOMM FM105 [-]</OBJECT_NAME><OBJECT_ID>2015-081C</OBJECT_ID><CENTER_NAME>EARTH</CENTER_NAME><REF_FRAME>TEME</REF_FRAME><TIME_SYSTEM>UTC</TIME_SYSTEM><MEAN_ELEMENT_THEORY>SGP4</MEAN_ELEMENT_THEORY></metadata><data><meanElements><EPOCH>2024-01-16T23:37:03.648000</EPOCH><MEAN_MOTION>14.44186308</MEAN_MOTION><ECCENTRICITY>.0001875</ECCENTRICITY><INCLINATION>47.0023</INCLINATION><RA_OF_ASC_NODE>71.5476</RA_OF_ASC_NODE><ARG_OF_PERICENTER>193.7641</ARG_OF_PERICENTER><MEAN_ANOMALY>166.3188</MEAN_ANOMALY></meanElements><tleParameters><EPHEMERIS_TYPE>0</EPHEMERIS_TYPE><CLASSIFICATION_TYPE>U</CLASSIFICATION_TYPE><NORAD_CAT_ID>41181</NORAD_CAT_ID><ELEMENT_SET_NO>999</ELEMENT_SET_NO><REV_AT_EPOCH>42596</REV_AT_EPOCH><BSTAR>.24037E-3</BSTAR><MEAN_MOTION_DOT>.675E-5</MEAN_MOTION_DOT><MEAN_MOTION_DDOT>0</MEAN_MOTION_DDOT></tleParameters></data></segment></body></omm>
<omm id="CCSDS_OMM_VERS" version="2.0">
<header><CREATION_DATE/><ORIGINATOR/></header><body><segment><metadata><OBJECT_NAME>ORBCOMM FM112 [+]</OBJECT_NAME><OBJECT_ID>2015-081F</OBJECT_ID><CENTER_NAME>EARTH</CENTER_NAME><REF_FRAME>TEME</REF_FRAME><TIME_SYSTEM>UTC</TIME_SYSTEM><MEAN_ELEMENT_THEORY>SGP4</MEAN_ELEMENT_THEORY></metadata><data><meanElements><EPOCH>2024-01-17T09:21:44.440416</EPOCH><MEAN_MOTION>14.56198842</MEAN_MOTION><ECCENTRICITY>.0001828</ECCENTRICITY><INCLINATION>46.9991</INCLINATION><RA_OF_ASC_NODE>112.3604</RA_OF_ASC_NODE><ARG_OF_PERICENTER>215.9237</ARG_OF_PERICENTER><MEAN_ANOMALY>144.1525</MEAN_ANOMALY></meanElements><tleParameters><EPHEMERIS_TYPE>0</EPHEMERIS_TYPE><CLASSIFICATION_TYPE>U</CLASSIFICATION_TYPE><NORAD_CAT_ID>41184</NORAD_CAT_ID><ELEMENT_SET_NO>999</ELEMENT_SET_NO><REV_AT_EPOCH>43029</REV_AT_EPOCH><BSTAR>.49234E-3</BSTAR><MEAN_MOTION_DOT>.203E-4</MEAN_MOTION_DOT><MEAN_MOTION_DDOT>0</MEAN_MOTION_DDOT></tleParameters></data></segment></body></omm>
<omm id="CCSDS_OMM_VERS" version="2.0">
<header><CREATION_DATE/><ORIGINATOR/></header><body><segment><metadata><OBJECT_NAME>ORBCOMM FM113 [+]</OBJECT_NAME><OBJECT_ID>2015-081G</OBJECT_ID><CENTER_NAME>EARTH</CENTER_NAME><REF_FRAME>TEME</REF_FRAME><TIME_SYSTEM>UTC</TIME_SYSTEM><MEAN_ELEMENT_THEORY>SGP4</MEAN_ELEMENT_THEORY></metadata><data><meanElements><EPOCH>2024-01-17T08:48:14.519808</EPOCH><MEAN_MOTION>14.56195330</MEAN_MOTION><ECCENTRICITY>.0001722</ECCENTRICITY><INCLINATION>47.0001</INCLINATION><RA_OF_ASC_NODE>112.7136</RA_OF_ASC_NODE><ARG_OF_PERICENTER>236.5494</ARG_OF_PERICENTER><MEAN_ANOMALY>123.5226</MEAN_ANOMALY></meanElements><tleParameters><EPHEMERIS_TYPE>0</EPHEMERIS_TYPE><CLASSIFICATION_TYPE>U</CLASSIFICATION_TYPE><NORAD_CAT_ID>41185</NORAD_CAT_ID><ELEMENT_SET_NO>999</ELEMENT_SET_NO><REV_AT_EPOCH>43027</REV_AT_EPOCH><BSTAR>.49095E-3</BSTAR><MEAN_MOTION_DOT>.2023E-4</MEAN_MOTION_DOT><MEAN_MOTION_DDOT>0</MEAN_MOTION_DDOT></tleParameters></data></segment></body></omm>

</ndm>
